ONEWEB-0657             
1 55818U 23029Y   26166.10175125 -.00000025  00000+0 -93820-4 0  9990
2 55818  87.9168 305.3900 0002533 103.8482 256.2932 13.19724621158635
ONEWEB-0658             
1 55819U 23029Z   26166.17282702  .00000051  00000+0  95669-4 0  9998
2 55819  87.9176 305.3510 0001654 110.5811 249.5499 13.19724694158651
ONEWEB-0660             
1 55820U 23029AA  26166.29982479 -.00000126  00000+0 -37335-3 0  9991
2 55820  87.8971 290.0739 0001558  97.3661 262.7646 13.14503710159152
ONEWEB-0661             
1 55821U 23029AB  26166.10637134  .00000223  00000+0  56566-3 0  9990
2 55821  87.8954 290.1577 0001655  93.5895 266.5424 13.14502636159118
ONEWEB-0662             
1 55822U 23029AC  26166.29348722 -.00000203  00000+0 -58237-3 0  9990
2 55822  87.8951 290.1268 0001584  97.4114 262.7196 13.14502604159187
ONEWEB-0663             
1 55823U 23029AD  26166.26857324  .00000074  00000+0  14957-3 0  9996
2 55823  87.9198 274.8838 0001530 105.7150 254.4152 13.20868972160898
ONEWEB-0664             
1 55824U 23029AE  26166.29701829  .00000052  00000+0  96765-4 0  9992
2 55824  87.9181 274.8593 0001807  86.1967 273.9373 13.20770616160892
ONEWEB-0665             
1 55825U 23029AF  26166.10320022  .00000214  00000+0  54190-3 0  9990
2 55825  87.8953 290.1392 0001555 101.1285 259.0020 13.14502540159139
ONEWEB-0666             
1 55826U 23029AG  26166.29028568  .00000010  00000+0 -80845-5 0  9994
2 55826  87.9182 274.8505 0002655 106.0770 254.0655 13.20771392160901
ONEWEB-0667             
1 55827U 23029AH  26166.28524050  .00000059  00000+0  11247-3 0  9991
2 55827  87.9199 274.8093 0001801  98.0302 262.1036 13.20771992160892
ONEWEB-0669             
1 55828U 23029AJ  26166.28018607  .00000036  00000+0  55587-4 0  9999
2 55828  87.9191 274.8216 0002288  87.6527 272.4869 13.20771901160893
ONEWEB-0670             
1 55829U 23029AK  26166.30934968 -.00000034  00000+0 -12554-3 0  9996
2 55829  87.8951 290.1153 0001689  88.9189 271.2134 13.14503414159187
ONEWEB-0671             
1 55830U 23029AL  26166.31971109  .00000014  00000+0  23612-5 0  9992
2 55830  87.9167 305.3478 0001697  96.5637 263.5689 13.19724231158657
ONEWEB-0672             
1 55831U 23029AM  26166.27512958  .00000036  00000+0  56259-4 0  9997
2 55831  87.9194 274.8158 0002243  99.3721 260.7666 13.20772009160897
ONEWEB-0673             
1 55832U 23029AN  26166.29680782  .00000019  00000+0  13910-4 0  9999
2 55832  87.9175 305.3438 0001738  96.0194 264.1137 13.19727149158659
ONEWEB-0674             
1 55833U 23029AP  26166.27762636  .00000075  00000+0  16673-3 0  9997
2 55833  87.8954 290.0984 0001694  87.3355 272.7969 13.14504043159169
