[{"OBJECT_NAME":"ONEWEB-0657","OBJECT_ID":"2023-029Y","EPOCH":"2026-06-15T02:26:31.308000","MEAN_MOTION":13.19724621,"ECCENTRICITY":0.0002533,"INCLINATION":87.9168,"RA_OF_ASC_NODE":305.39,"ARG_OF_PERICENTER":103.8482,"MEAN_ANOMALY":256.2932,"EPHEMERIS_TYPE":0,"CLASSIFICATION_TYPE":"U","NORAD_CAT_ID":55818,"ELEMENT_SET_NO":999,"REV_AT_EPOCH":15863,"BSTAR":-9.382e-05,"MEAN_MOTION_DOT":-2.5e-07,"MEAN_MOTION_DDOT":0.0},{"OBJECT_NAME":"ONEWEB-0658","OBJECT_ID":"2023-029Z","EPOCH":"2026-06-15T04:08:52.254528","MEAN_MOTION":13.19724694,"ECCENTRICITY":0.0001654,"INCLINATION":87.9176,"RA_OF_ASC_NODE":305.351,"ARG_OF_PERICENTER":110.5811,"MEAN_ANOMALY":249.5499,"EPHEMERIS_TYPE":0,"CLASSIFICATION_TYPE":"U","NORAD_CAT_ID":55819,"ELEMENT_SET_NO":999,"REV_AT_EPOCH":15865,"BSTAR":9.566900000000001e-05,"MEAN_MOTION_DOT":5.1e-07,"MEAN_MOTION_DDOT":0.0},{"OBJECT_NAME":"ONEWEB-0660","OBJECT_ID":"2023-029AA","EPOCH":"2026-06-15T07:11:44.861856","MEAN_MOTION":13.1450371,"ECCENTRICITY":0.0001558,"INCLINATION":87.8971,"RA_OF_ASC_NODE":290.0739,"ARG_OF_PERICENTER":97.3661,"MEAN_ANOMALY":262.7646,"EPHEMERIS_TYPE":0,"CLASSIFICATION_TYPE":"U","NORAD_CAT_ID":55820,"ELEMENT_SET_NO":999,"REV_AT_EPOCH":15915,"BSTAR":-0.00037335000000000005,"MEAN_MOTION_DOT":-1.26e-06,"MEAN_MOTION_DDOT":0.0},{"OBJECT_NAME":"ONEWEB-0661","OBJECT_ID":"2023-029AB","EPOCH":"2026-06-15T02:33:10.483776","MEAN_MOTION":13.14502636,"ECCENTRICITY":0.0001655,"INCLINATION":87.8954,"RA_OF_ASC_NODE":290.1577,"ARG_OF_PERICENTER":93.5895,"MEAN_ANOMALY":266.5424,"EPHEMERIS_TYPE":0,"CLASSIFICATION_TYPE":"U","NORAD_CAT_ID":55821,"ELEMENT_SET_NO":999,"REV_AT_EPOCH":15911,"BSTAR":0.0005656600000000001,"MEAN_MOTION_DOT":2.23e-06,"MEAN_MOTION_DDOT":0.0},{"OBJECT_NAME":"ONEWEB-0662","OBJECT_ID":"2023-029AC","EPOCH":"2026-06-15T07:02:37.295808","MEAN_MOTION":13.14502604,"ECCENTRICITY":0.0001584,"INCLINATION":87.8951,"RA_OF_ASC_NODE":290.1268,"ARG_OF_PERICENTER":97.4114,"MEAN_ANOMALY":262.7196,"EPHEMERIS_TYPE":0,"CLASSIFICATION_TYPE":"U","NORAD_CAT_ID":55822,"ELEMENT_SET_NO":999,"REV_AT_EPOCH":15918,"BSTAR":-0.00058237,"MEAN_MOTION_DOT":-2.03e-06,"MEAN_MOTION_DDOT":0.0},{"OBJECT_NAME":"ONEWEB-0663","OBJECT_ID":"2023-029AD","EPOCH":"2026-06-15T06:26:44.727936","MEAN_MOTION":13.20868972,"ECCENTRICITY":0.000153,"INCLINATION":87.9198,"RA_OF_ASC_NODE":274.8838,"ARG_OF_PERICENTER":105.715,"MEAN_ANOMALY":254.4152,"EPHEMERIS_TYPE":0,"CLASSIFICATION_TYPE":"U","NORAD_CAT_ID":55823,"ELEMENT_SET_NO":999,"REV_AT_EPOCH":16089,"BSTAR":0.00014957000000000002,"MEAN_MOTION_DOT":7.4e-07,"MEAN_MOTION_DDOT":0.0},{"OBJECT_NAME":"ONEWEB-0664","OBJECT_ID":"2023-029AE","EPOCH":"2026-06-15T07:07:42.380256","MEAN_MOTION":13.20770616,"ECCENTRICITY":0.0001807,"INCLINATION":87.9181,"RA_OF_ASC_NODE":274.8593,"ARG_OF_PERICENTER":86.1967,"MEAN_ANOMALY":273.9373,"EPHEMERIS_TYPE":0,"CLASSIFICATION_TYPE":"U","NORAD_CAT_ID":55824,"ELEMENT_SET_NO":999,"REV_AT_EPOCH":16089,"BSTAR":9.6765e-05,"MEAN_MOTION_DOT":5.2e-07,"MEAN_MOTION_DDOT":0.0},{"OBJECT_NAME":"ONEWEB-0665","OBJECT_ID":"2023-029AF","EPOCH":"2026-06-15T02:28:36.499008","MEAN_MOTION":13.1450254,"ECCENTRICITY":0.0001555,"INCLINATION":87.8953,"RA_OF_ASC_NODE":290.1392,"ARG_OF_PERICENTER":101.1285,"MEAN_ANOMALY":259.002,"EPHEMERIS_TYPE":0,"CLASSIFICATION_TYPE":"U","NORAD_CAT_ID":55825,"ELEMENT_SET_NO":999,"REV_AT_EPOCH":15913,"BSTAR":0.0005419000000000001,"MEAN_MOTION_DOT":2.14e-06,"MEAN_MOTION_DDOT":0.0},{"OBJECT_NAME":"ONEWEB-0666","OBJECT_ID":"2023-029AG","EPOCH":"2026-06-15T06:58:00.682752","MEAN_MOTION":13.20771392,"ECCENTRICITY":0.0002655,"INCLINATION":87.9182,"RA_OF_ASC_NODE":274.8505,"ARG_OF_PERICENTER":106.077,"MEAN_ANOMALY":254.0655,"EPHEMERIS_TYPE":0,"CLASSIFICATION_TYPE":"U","NORAD_CAT_ID":55826,"ELEMENT_SET_NO":999,"REV_AT_EPOCH":16090,"BSTAR":-8.0845e-06,"MEAN_MOTION_DOT":1e-07,"MEAN_MOTION_DDOT":0.0},{"OBJECT_NAME":"ONEWEB-0667","OBJECT_ID":"2023-029AH","EPOCH":"2026-06-15T06:50:44.779200","MEAN_MOTION":13.20771992,"ECCENTRICITY":0.0001801,"INCLINATION":87.9199,"RA_OF_ASC_NODE":274.8093,"ARG_OF_PERICENTER":98.0302,"MEAN_ANOMALY":262.1036,"EPHEMERIS_TYPE":0,"CLASSIFICATION_TYPE":"U","NORAD_CAT_ID":55827,"ELEMENT_SET_NO":999,"REV_AT_EPOCH":16089,"BSTAR":0.00011247,"MEAN_MOTION_DOT":5.9e-07,"MEAN_MOTION_DDOT":0.0},{"OBJECT_NAME":"ONEWEB-0669","OBJECT_ID":"2023-029AJ","EPOCH":"2026-06-15T06:43:28.076448","MEAN_MOTION":13.20771901,"ECCENTRICITY":0.0002288,"INCLINATION":87.9191,"RA_OF_ASC_NODE":274.8216,"ARG_OF_PERICENTER":87.6527,"MEAN_ANOMALY":272.4869,"EPHEMERIS_TYPE":0,"CLASSIFICATION_TYPE":"U","NORAD_CAT_ID":55828,"ELEMENT_SET_NO":999,"REV_AT_EPOCH":16089,"BSTAR":5.5587e-05,"MEAN_MOTION_DOT":3.6e-07,"MEAN_MOTION_DDOT":0.0},{"OBJECT_NAME":"ONEWEB-0670","OBJECT_ID":"2023-029AK","EPOCH":"2026-06-15T07:25:27.812352","MEAN_MOTION":13.14503414,"ECCENTRICITY":0.0001689,"INCLINATION":87.8951,"RA_OF_ASC_NODE":290.1153,"ARG_OF_PERICENTER":88.9189,"MEAN_ANOMALY":271.2134,"EPHEMERIS_TYPE":0,"CLASSIFICATION_TYPE":"U","NORAD_CAT_ID":55829,"ELEMENT_SET_NO":999,"REV_AT_EPOCH":15918,"BSTAR":-0.00012554000000000002,"MEAN_MOTION_DOT":-3.4e-07,"MEAN_MOTION_DDOT":0.0},{"OBJECT_NAME":"ONEWEB-0671","OBJECT_ID":"2023-029AL","EPOCH":"2026-06-15T07:40:23.038176","MEAN_MOTION":13.19724231,"ECCENTRICITY":0.0001697,"INCLINATION":87.9167,"RA_OF_ASC_NODE":305.3478,"ARG_OF_PERICENTER":96.5637,"MEAN_ANOMALY":263.5689,"EPHEMERIS_TYPE":0,"CLASSIFICATION_TYPE":"U","NORAD_CAT_ID":55830,"ELEMENT_SET_NO":999,"REV_AT_EPOCH":15865,"BSTAR":2.3612000000000004e-06,"MEAN_MOTION_DOT":1.4e-07,"MEAN_MOTION_DDOT":0.0},{"OBJECT_NAME":"ONEWEB-0672","OBJECT_ID":"2023-029AM","EPOCH":"2026-06-15T06:36:11.195712","MEAN_MOTION":13.20772009,"ECCENTRICITY":0.0002243,"INCLINATION":87.9194,"RA_OF_ASC_NODE":274.8158,"ARG_OF_PERICENTER":99.3721,"MEAN_ANOMALY":260.7666,"EPHEMERIS_TYPE":0,"CLASSIFICATION_TYPE":"U","NORAD_CAT_ID":55831,"ELEMENT_SET_NO":999,"REV_AT_EPOCH":16089,"BSTAR":5.6259000000000005e-05,"MEAN_MOTION_DOT":3.6e-07,"MEAN_MOTION_DDOT":0.0},{"OBJECT_NAME":"ONEWEB-0673","OBJECT_ID":"2023-029AN","EPOCH":"2026-06-15T07:07:24.195648","MEAN_MOTION":13.19727149,"ECCENTRICITY":0.0001738,"INCLINATION":87.9175,"RA_OF_ASC_NODE":305.3438,"ARG_OF_PERICENTER":96.0194,"MEAN_ANOMALY":264.1137,"EPHEMERIS_TYPE":0,"CLASSIFICATION_TYPE":"U","NORAD_CAT_ID":55832,"ELEMENT_SET_NO":999,"REV_AT_EPOCH":15865,"BSTAR":1.391e-05,"MEAN_MOTION_DOT":1.9e-07,"MEAN_MOTION_DDOT":0.0},{"OBJECT_NAME":"ONEWEB-0674","OBJECT_ID":"2023-029AP","EPOCH":"2026-06-15T06:39:46.917504","MEAN_MOTION":13.14504043,"ECCENTRICITY":0.0001694,"INCLINATION":87.8954,"RA_OF_ASC_NODE":290.0984,"ARG_OF_PERICENTER":87.3355,"MEAN_ANOMALY":272.7969,"EPHEMERIS_TYPE":0,"CLASSIFICATION_TYPE":"U","NORAD_CAT_ID":55833,"ELEMENT_SET_NO":999,"REV_AT_EPOCH":15916,"BSTAR":0.00016673,"MEAN_MOTION_DOT":7.5e-07,"MEAN_MOTION_DDOT":0.0}]